[Satellite]
VERSION=1.1
NAME=DO-64
NICKNAME=DO-64
TLE1=1 32789U 08021G   22342.02675901  .00024451  00000+0  11780-2 0  9997
TLE2=2 32789  97.3246   2.4363 0011200  79.8072 280.4425 15.18671416798220
STATUS=0
